NORAD_CAT_ID,OBJECT_NAME,OBJECT_TYPE,EPOCH,MEAN_MOTION,ECCENTRICITY,INCLINATION,RA_OF_ASC_NODE,ARG_OF_PERICENTER,MEAN_ANOMALY,BSTAR,MEAN_MOTION_DOT,MEAN_MOTION_DDOT,TLE_LINE0,TLE_LINE1,TLE_LINE2,SEMIMAJOR_AXIS,PERIOD,APOGEE,PERIGEE,DECAYED
49181.0,STARLINK-3059,PAYLOAD,2023-08-08 01:56:59,14.98335835,0.0003254,70.0009,156.1536,270.6531,89.4255,1.2145e-05,5.2e-07,0.0,0 STARLINK-3059,1 49181U 21082BD  23220.08124126  .00000052  00000-0  12145-4 0  9993,2 49181  70.0009 156.1536 0003254 270.6531  89.4255 14.98335835105655,6950.175,96.107,574.301,569.778,0.0
49181.0,STARLINK-3059,PAYLOAD,2023-08-08 19:34:28,14.98324546,0.0003183,70.001,154.3019,272.0669,88.0126,0.00019001,2.175e-05,0.0,0 STARLINK-3059,1 49181U 21082BD  23220.81560378  .00002175  00000-0  19001-3 0  9992,2 49181  70.0010 154.3019 0003183 272.0669  88.0126 14.98324546105763,6950.21,96.107,574.287,569.863,0.0
49181.0,STARLINK-3059,PAYLOAD,2023-08-09 06:47:24,14.98330937,0.0003172,70.001,153.1234,271.3524,88.7272,0.00022348,2.575e-05,0.0,0 STARLINK-3059,1 49181U 21082BD  23221.28291971  .00002575  00000-0  22348-3 0  9996,2 49181  70.0010 153.1234 0003172 271.3524  88.7272 14.98330937105837,6950.19,96.107,574.26,569.85,0.0
49181.0,STARLINK-3059,PAYLOAD,2023-08-09 19:36:29,14.98321251,0.0003019,70.0014,151.7781,271.3015,88.7798,0.00016386,1.862e-05,0.0,0 STARLINK-3059,1 49181U 21082BD  23221.81700587  .00001862  00000-0  16386-3 0  9996,2 49181  70.0014 151.7781 0003019 271.3015  88.7798 14.98321251105918,6950.22,96.108,574.183,569.987,0.0
49181.0,STARLINK-3059,PAYLOAD,2023-08-11 02:03:01,14.98342901,0.0002903,70.0029,148.5788,266.1014,93.9813,-0.00015272,-1.915e-05,0.0,0 STARLINK-3059,1 49181U 21082BD  23223.08543876 -.00001915  00000-0 -15272-3 0  9997,2 49181  70.0029 148.5788 0002903 266.1014  93.9813 14.98342901106100,6950.153,96.106,574.036,570.0,0.0
49181.0,STARLINK-3059,PAYLOAD,2023-08-11 18:04:23,14.98324117,0.0003105,70.0009,146.8956,272.5498,87.5305,-4.0472e-05,-5.76e-06,0.0,0 STARLINK-3059,1 49181U 21082BD  23223.75304732 -.00000576  00000-0 -40472-4 0  9990,2 49181  70.0009 146.8956 0003105 272.5498  87.5305 14.98324117106203,6950.211,96.107,574.234,569.918,0.0
49181.0,STARLINK-3059,PAYLOAD,2023-08-12 02:05:03,14.98330591,0.0003108,70.0012,146.0547,269.0611,91.0192,1.0121e-05,2.8e-07,0.0,0 STARLINK-3059,1 49181U 21082BD  23224.08684186  .00000028  00000-0  10121-4 0  9999,2 49181  70.0012 146.0547 0003108 269.0611  91.0192 14.98330591106258,6950.191,96.107,574.216,569.896,0.0
49181.0,STARLINK-3059,PAYLOAD,2023-08-13 05:19:19,14.98334648,0.0002848,70.0016,143.1937,267.974,92.1092,2.9046e-05,2.54e-06,0.0,0 STARLINK-3059,1 49181U 21082BD  23225.22175848  .00000254  00000-0  29046-4 0  9993,2 49181  70.0016 143.1937 0002848 267.9740  92.1092 14.98334648106420,6950.179,96.107,574.023,570.064,0.0
49181.0,STARLINK-3059,PAYLOAD,2023-08-13 22:56:49,14.98324244,0.0002763,70.0013,141.342,265.3337,94.7506,5.7124e-06,-2.5e-07,0.0,0 STARLINK-3059,1 49181U 21082BD  23225.95612605 -.00000025  00000-0  57124-5 0  9996,2 49181  70.0013 141.3420 0002763 265.3337  94.7506 14.98324244106535,6950.211,96.107,573.996,570.155,0.0
49181.0,STARLINK-3059,PAYLOAD,2023-08-15 02:11:06,14.98326861,0.0002743,70.001,138.4801,266.6385,93.446,-3.8688e-05,-5.54e-06,0.0,0 STARLINK-3059,1 49181U 21082BD  23227.09104484 -.00000554  00000-0 -38688-4 0  9995,2 49181  70.0010 138.4801 0002743 266.6385  93.4460 14.98326861106708,6950.203,96.107,573.974,570.161,0.0
49181.0,STARLINK-3059,PAYLOAD,2023-08-15 05:23:21,14.98338094,0.0003078,70.0005,138.1431,267.7001,92.3806,5.6929e-05,5.86e-06,0.0,0 STARLINK-3059,1 49181U 21082BD  23227.22455468  .00000586  00000-0  56929-4 0  9992,2 49181  70.0005 138.1431 0003078 267.7001  92.3806 14.98338094106722,6950.168,96.106,574.172,569.894,0.0
49181.0,STARLINK-3059,PAYLOAD,2023-08-16 02:13:06,14.98331779,0.0002997,70.0002,135.9555,269.5987,90.4828,0.00010161,1.12e-05,0.0,0 STARLINK-3059,1 49181U 21082BD  23228.09243795  .00001120  00000-0  10161-3 0  9998,2 49181  70.0002 135.9555 0002997 269.5987  90.4828 14.98331779106853,6950.187,96.107,574.135,569.969,0.0
49181.0,STARLINK-3059,PAYLOAD,2023-08-17 02:15:07,14.98332161,0.0002984,70.0002,133.4307,268.6788,91.4029,0.0001565,1.775e-05,0.0,0 STARLINK-3059,1 49181U 21082BD  23229.09383533  .00001775  00000-0  15650-3 0  9998,2 49181  70.0002 133.4307 0002984 268.6788  91.4029 14.98332161107004,6950.186,96.107,574.125,569.977,0.0
49181.0,STARLINK-3059,PAYLOAD,2023-08-18 02:17:08,14.98336477,0.000304,70.0001,130.9062,270.8407,89.2403,5.9062e-05,6.12e-06,0.0,0 STARLINK-3059,1 49181U 21082BD  23230.09523242  .00000612  00000-0  59062-4 0  9998,2 49181  70.0001 130.9062 0003040 270.8407  89.2403 14.98336477107151,6950.173,96.107,574.151,569.925,0.0
49181.0,STARLINK-3059,PAYLOAD,2023-08-18 16:42:21,14.98327532,0.0003082,70.0005,129.3912,273.332,86.7486,-7.8532e-05,-1.03e-05,0.0,0 STARLINK-3059,1 49181U 21082BD  23230.69608130 -.00001030  00000-0 -78532-4 0  9994,2 49181  70.0005 129.3912 0003082 273.3320  86.7486 14.98327532107244,6950.201,96.107,574.208,569.923,0.0
49181.0,STARLINK-3059,PAYLOAD,2023-08-19 02:19:09,14.98333917,0.0003105,70.0004,128.3811,268.3158,91.7645,-5.6502e-07,-1e-06,0.0,0 STARLINK-3059,1 49181U 21082BD  23231.09663431 -.00000100  00000-0 -56502-6 0  9996,2 49181  70.0004 128.3811 0003105 268.3158  91.7645 14.98333917107303,6950.181,96.107,574.204,569.888,0.0
49181.0,STARLINK-3059,PAYLOAD,2023-08-19 16:44:22,14.98324011,0.0003129,70.0001,126.8665,270.1221,89.958,-5.8873e-05,-7.95e-06,0.0,0 STARLINK-3059,1 49181U 21082BD  23231.69748330 -.00000795  00000-0 -58873-4 0  9995,2 49181  70.0001 126.8665 0003129 270.1221  89.9580 14.98324011107399,6950.211,96.107,574.251,569.902,0.0
49181.0,STARLINK-3059,PAYLOAD,2023-08-20 02:21:10,14.98329246,0.0003137,70.0,125.8567,270.4961,89.5839,6.4427e-06,-1.6e-07,0.0,0 STARLINK-3059,1 49181U 21082BD  23232.09803931 -.00000016  00000-0  64427-5 0  9997,2 49181  70.0000 125.8567 0003137 270.4961  89.5839 14.98329246107456,6950.195,96.107,574.24,569.88,0.0
49181.0,STARLINK-3059,PAYLOAD,2023-08-21 02:23:09,14.98375968,0.0003342,69.9999,123.3321,270.6451,89.4325,-0.00052798,-6.395e-05,0.0,0 STARLINK-3059,1 49181U 21082BD  23233.09942005 -.00006395  00000-0 -52798-3 0  9997,2 49181  69.9999 123.3321 0003342 270.6451  89.4325 14.98375968107603,6950.051,96.104,574.238,569.593,0.0
49181.0,STARLINK-3059,PAYLOAD,2023-08-21 20:00:40,14.98324128,0.0003067,70.0,121.48,269.5892,90.4916,1.8542e-05,1.28e-06,0.0,0 STARLINK-3059,1 49181U 21082BD  23233.83380207  .00000128  00000-0  18542-4 0  9995,2 49181  70.0000 121.4800 0003067 269.5892  90.4916 14.98324128107712,6950.211,96.107,574.208,569.944,0.0
49181.0,STARLINK-3059,PAYLOAD,2023-08-22 02:25:12,14.98329473,0.0003066,70.0001,120.8068,269.6697,90.4111,7.2258e-05,7.69e-06,0.0,0 STARLINK-3059,1 49181U 21082BD  23234.10083770  .00000769  00000-0  72258-4 0  9996,2 49181  70.0001 120.8068 0003066 269.6697  90.4111 14.98329473107754,6950.195,96.107,574.19,569.929,0.0
49181.0,STARLINK-3059,PAYLOAD,2023-08-23 02:27:13,14.98329205,0.0003084,69.9999,118.2819,269.9484,90.1321,-8.1175e-05,-1.061e-05,0.0,0 STARLINK-3059,1 49181U 21082BD  23235.10224072 -.00001061  00000-0 -81175-4 0  9995,2 49181  69.9999 118.2819 0003084 269.9484  90.1321 14.98329205107909,6950.195,96.107,574.204,569.917,0.0
49181.0,STARLINK-3059,PAYLOAD,2023-08-24 20:06:44,14.98322914,0.0002955,70.0004,113.9052,272.1805,87.9016,0.00012309,1.376e-05,0.0,0 STARLINK-3059,1 49181U 21082BD  23236.83801166  .00001376  00000-0  12309-3 0  9990,2 49181  70.0004 113.9052 0002955 272.1805  87.9016 14.98322914108185,6950.215,96.107,574.134,570.026,0.0
49181.0,STARLINK-3059,PAYLOAD,2023-08-24 23:19:00,14.9832644,0.000269,69.9992,113.5699,285.8716,74.2147,0.0001754,2e-05,0.0,0 STARLINK-3059,1 49181U 21082BD  23236.97153117  .00002000  00000-0  17540-3 0  9998,2 49181  69.9992 113.5699 0002690 285.8716  74.2147 14.98326440108181,6950.204,96.107,573.939,570.199,0.0
49181.0,STARLINK-3059,PAYLOAD,2023-08-25 18:32:36,14.98335153,0.0003227,69.9993,111.5511,271.7415,88.3374,0.0003214,3.744e-05,0.0,0 STARLINK-3059,1 49181U 21082BD  23237.77263899  .00003744  00000-0  32140-3 0  9995,2 49181  69.9993 111.5511 0003227 271.7415  88.3374 14.98335153108303,6950.177,96.107,574.285,569.799,0.0
49181.0,STARLINK-3059,PAYLOAD,2023-08-25 20:08:44,14.98335756,0.000314,69.9994,111.3823,273.0906,86.9894,0.00033517,3.909e-05,0.0,0 STARLINK-3059,1 49181U 21082BD  23237.83939826  .00003909  00000-0  33517-3 0  9994,2 49181  69.9994 111.3823 0003140 273.0906  86.9894 14.98335756108335,6950.175,96.107,574.222,569.858,0.0
49181.0,STARLINK-3059,PAYLOAD,2023-08-26 00:57:07,14.98339487,0.0002956,69.9996,110.8757,278.1374,81.945,0.00040972,4.8e-05,0.0,0 STARLINK-3059,1 49181U 21082BD  23238.03967375  .00004800  00000-0  40972-3 0  9991,2 49181  69.9996 110.8757 0002956 278.1374  81.9450 14.98339487108367,6950.164,96.106,574.083,569.974,0.0
49181.0,STARLINK-3059,PAYLOAD,2023-08-26 18:34:37,14.98339804,0.0002763,70.0013,109.0262,274.489,85.5953,-0.00012076,-1.534e-05,0.0,0 STARLINK-3059,1 49181U 21082BD  23238.77404511 -.00001534  00000-0 -12076-3 0  9997,2 49181  70.0013 109.0262 0002763 274.4890  85.5953 14.98339804108450,6950.163,96.106,573.948,570.107,0.0
49181.0,STARLINK-3059,PAYLOAD,2023-08-26 20:10:45,14.98338971,0.0002847,69.9999,108.8553,275.6243,84.4591,-9.9573e-05,-1.281e-05,0.0,0 STARLINK-3059,1 49181U 21082BD  23238.84080463 -.00001281  00000-0 -99573-4 0  9998,2 49181  69.9999 108.8553 0002847 275.6243  84.4591 14.98338971108481,6950.165,96.106,574.009,570.051,0.0
49181.0,STARLINK-3059,PAYLOAD,2023-08-27 00:59:09,14.98339863,0.0002921,69.9994,108.3508,272.373,87.7095,-6.2801e-05,-8.42e-06,0.0,0 STARLINK-3059,1 49181U 21082BD  23239.04108114 -.00000842  00000-0 -62801-4 0  9991,2 49181  69.9994 108.3508 0002921 272.3730  87.7095 14.98339863108519,6950.162,96.106,574.058,569.997,0.0
